KUIPER-00268            
1 67790U 26030AC  26053.83336806  .00004759  00000+0  14723-3 0  9997
2 67790  51.8852 290.7406 0001770  25.4165 218.4668 15.35381941  1305
KUIPER-00270            
1 67791U 26030AD  26053.83336806  .00003659  00000+0  12082-3 0  9992
2 67791  51.8813 290.8424 0009861  12.7486 179.0129 15.33986781  1527
KUIPER-00274            
1 67792U 26030AE  26053.83336806 -.00003509  00000+0 -98372-4 0  9996
2 67792  51.8824 290.9552 0017203  23.9892 114.0377 15.32314040  1792
KUIPER-00275            
1 67793U 26030AF  26053.83336806  .00002912  00000+0  97681-4 0  9994
2 67793  51.8847 290.8285 0008086  11.5170 189.6668 15.34260949  1309
KUIPER-00276            
1 67794U 26030AG  26053.83336806  .00007877  00000+0  26471-3 0  9998
2 67794  51.8818 290.9740 0018416  21.3711 106.8969 15.31628222  2511
KUIPER-00279            
1 67795U 26030AH  26053.83336806  .00002992  00000+0  98769-4 0  9992
2 67795  51.8805 290.7918 0006022   9.0163 207.2059 15.34690100  1306
CREW DRAGON 12          
1 67796U 26031A   26052.76529869  .00010666  00000+0  20704-3 0  9998
2 67796  51.6320 151.0701 0008511 119.8639 240.3195 15.48189327553837
