CCSDS_OMM_VERS = 2.0
CREATION_DATE  = 
ORIGINATOR     = 

OBJECT_NAME    = KUIPER-00268
OBJECT_ID      = 2026-030AC
CENTER_NAME    = EARTH
REF_FRAME      = TEME
TIME_SYSTEM    = UTC
MEAN_ELEMENT_THEORY = SGP/SGP4

EPOCH          = 2026-02-22T20:00:03.000384
MEAN_MOTION    = 15.35381941
ECCENTRICITY   = .000177
INCLINATION    = 51.8852
RA_OF_ASC_NODE = 290.7406
ARG_OF_PERICENTER = 25.4165
MEAN_ANOMALY   = 218.4668

EPHEMERIS_TYPE = 0
CLASSIFICATION_TYPE = U
NORAD_CAT_ID   = 67790
ELEMENT_SET_NO = 999
REV_AT_EPOCH   = 130
BSTAR          = .14723E-3
MEAN_MOTION_DOT = .4759E-4
MEAN_MOTION_DDOT = 0

CCSDS_OMM_VERS = 2.0
CREATION_DATE  = 
ORIGINATOR     = 

OBJECT_NAME    = KUIPER-00270
OBJECT_ID      = 2026-030AD
CENTER_NAME    = EARTH
REF_FRAME      = TEME
TIME_SYSTEM    = UTC
MEAN_ELEMENT_THEORY = SGP/SGP4

EPOCH          = 2026-02-22T20:00:03.000384
MEAN_MOTION    = 15.33986781
ECCENTRICITY   = .0009861
INCLINATION    = 51.8813
RA_OF_ASC_NODE = 290.8424
ARG_OF_PERICENTER = 12.7486
MEAN_ANOMALY   = 179.0129

EPHEMERIS_TYPE = 0
CLASSIFICATION_TYPE = U
NORAD_CAT_ID   = 67791
ELEMENT_SET_NO = 999
REV_AT_EPOCH   = 152
BSTAR          = .12082E-3
MEAN_MOTION_DOT = .3659E-4
MEAN_MOTION_DDOT = 0

CCSDS_OMM_VERS = 2.0
CREATION_DATE  = 
ORIGINATOR     = 

OBJECT_NAME    = KUIPER-00274
OBJECT_ID      = 2026-030AE
CENTER_NAME    = EARTH
REF_FRAME      = TEME
TIME_SYSTEM    = UTC
MEAN_ELEMENT_THEORY = SGP/SGP4

EPOCH          = 2026-02-22T20:00:03.000384
MEAN_MOTION    = 15.32314040
ECCENTRICITY   = .0017203
INCLINATION    = 51.8824
RA_OF_ASC_NODE = 290.9552
ARG_OF_PERICENTER = 23.9892
MEAN_ANOMALY   = 114.0377

EPHEMERIS_TYPE = 0
CLASSIFICATION_TYPE = U
NORAD_CAT_ID   = 67792
ELEMENT_SET_NO = 999
REV_AT_EPOCH   = 179
BSTAR          = -.98372E-4
MEAN_MOTION_DOT = -.3509E-4
MEAN_MOTION_DDOT = 0

CCSDS_OMM_VERS = 2.0
CREATION_DATE  = 
ORIGINATOR     = 

OBJECT_NAME    = KUIPER-00275
OBJECT_ID      = 2026-030AF
CENTER_NAME    = EARTH
REF_FRAME      = TEME
TIME_SYSTEM    = UTC
MEAN_ELEMENT_THEORY = SGP/SGP4

EPOCH          = 2026-02-22T20:00:03.000384
MEAN_MOTION    = 15.34260949
ECCENTRICITY   = .0008086
INCLINATION    = 51.8847
RA_OF_ASC_NODE = 290.8285
ARG_OF_PERICENTER = 11.5170
MEAN_ANOMALY   = 189.6668

EPHEMERIS_TYPE = 0
CLASSIFICATION_TYPE = U
NORAD_CAT_ID   = 67793
ELEMENT_SET_NO = 999
REV_AT_EPOCH   = 130
BSTAR          = .97681E-4
MEAN_MOTION_DOT = .2912E-4
MEAN_MOTION_DDOT = 0

CCSDS_OMM_VERS = 2.0
CREATION_DATE  = 
ORIGINATOR     = 

OBJECT_NAME    = KUIPER-00276
OBJECT_ID      = 2026-030AG
CENTER_NAME    = EARTH
REF_FRAME      = TEME
TIME_SYSTEM    = UTC
MEAN_ELEMENT_THEORY = SGP/SGP4

EPOCH          = 2026-02-22T20:00:03.000384
MEAN_MOTION    = 15.31628222
ECCENTRICITY   = .0018416
INCLINATION    = 51.8818
RA_OF_ASC_NODE = 290.9740
ARG_OF_PERICENTER = 21.3711
MEAN_ANOMALY   = 106.8969

EPHEMERIS_TYPE = 0
CLASSIFICATION_TYPE = U
NORAD_CAT_ID   = 67794
ELEMENT_SET_NO = 999
REV_AT_EPOCH   = 251
BSTAR          = .26471E-3
MEAN_MOTION_DOT = .7877E-4
MEAN_MOTION_DDOT = 0

CCSDS_OMM_VERS = 2.0
CREATION_DATE  = 
ORIGINATOR     = 

OBJECT_NAME    = KUIPER-00279
OBJECT_ID      = 2026-030AH
CENTER_NAME    = EARTH
REF_FRAME      = TEME
TIME_SYSTEM    = UTC
MEAN_ELEMENT_THEORY = SGP/SGP4

EPOCH          = 2026-02-22T20:00:03.000384
MEAN_MOTION    = 15.34690100
ECCENTRICITY   = .0006022
INCLINATION    = 51.8805
RA_OF_ASC_NODE = 290.7918
ARG_OF_PERICENTER = 9.0163
MEAN_ANOMALY   = 207.2059

EPHEMERIS_TYPE = 0
CLASSIFICATION_TYPE = U
NORAD_CAT_ID   = 67795
ELEMENT_SET_NO = 999
REV_AT_EPOCH   = 130
BSTAR          = .98769E-4
MEAN_MOTION_DOT = .2992E-4
MEAN_MOTION_DDOT = 0

CCSDS_OMM_VERS = 2.0
CREATION_DATE  = 
ORIGINATOR     = 

OBJECT_NAME    = CREW DRAGON 12
OBJECT_ID      = 2026-031A
CENTER_NAME    = EARTH
REF_FRAME      = TEME
TIME_SYSTEM    = UTC
MEAN_ELEMENT_THEORY = SGP/SGP4

EPOCH          = 2026-02-21T18:22:01.806816
MEAN_MOTION    = 15.48189327
ECCENTRICITY   = .00085118
INCLINATION    = 51.6320
RA_OF_ASC_NODE = 151.0701
ARG_OF_PERICENTER = 119.8639
MEAN_ANOMALY   = 240.3195

EPHEMERIS_TYPE = 0
CLASSIFICATION_TYPE = U
NORAD_CAT_ID   = 67796
ELEMENT_SET_NO = 999
REV_AT_EPOCH   = 55383
BSTAR          = .20704396E-3
MEAN_MOTION_DOT = .10666E-3
MEAN_MOTION_DDOT = 0

